SL-16 R/B               
1 22566U 93016B   26064.89269229  .00000266  00000+0  16093-3 0  9990
2 22566  71.0063 223.1556 0011524 319.4689  40.5575 14.15306792701638
COSMOS 2242             
1 22626U 93024A   26064.62416765  .00002493  00000+0  21662-3 0  9998
2 22626  82.5151 270.6064 0015446 323.5049  36.5119 14.96528853779787
SL-16 R/B               
1 22803U 93059B   26064.94784179 -.00000114  00000+0 -32481-4 0  9997
2 22803  70.9923  19.0160 0018715 221.8806 138.0887 14.17232136679000
ARIANE 40 R/B           
1 22830U 93061H   26064.71823323  .00000289  00000+0  12174-3 0  9997
2 22830  98.4923 133.6840 0009620 298.2066  61.8146 14.32858647693537
COSMOS 2278             
1 23087U 94023A   26064.70791326  .00000267  00000+0  16398-3 0  9995
2 23087  71.0546 183.4267 0007763  21.1565 338.9877 14.14377027644240
SL-16 R/B               
1 23088U 94023B   26064.47339707 -.00000153  00000+0 -54485-4 0  9997
2 23088  70.9986  79.7425 0005672 289.7929  70.2581 14.15013187645494
SL-16 R/B               
1 23343U 94074B   26065.00539066  .00000578  00000+0  84178-4 0  9998
2 23343  97.7113  95.9723 0005529 224.6064 194.3981 14.79402649686703
SL-16 R/B               
1 23405U 94077B   26064.95131017 -.00000213  00000+0 -84264-4 0  9991
2 23405  70.9852   0.3529 0003315 217.4117 142.6775 14.15561521615703
ARIANE 40+ R/B          
1 23561U 95021B   26064.72621991  .00000423  00000+0  14889-3 0  9990
2 23561  98.4505 136.2624 0007472 147.1612 323.9586 14.39769270618678
SL-16 R/B               
1 23705U 95058B   26064.74612336  .00000120  00000+0  85534-4 0  9995
2 23705  71.0213 188.5336 0010969 132.7336 227.4712 14.15493138567290
SL-16 R/B               
1 24298U 96051B   26064.70426244  .00000123  00000+0  92990-4 0  9991
2 24298  70.7599 183.6736 0015422 154.0650 206.1246 14.12414504521086
ORBVIEW 2 (SEASTAR)     
1 24883U 97037A   26064.93278538  .00000391  00000+0  15219-3 0  9997
2 24883  98.8559 229.1451 0003146  79.4139 280.7399 14.35491444507933
