CCSDS_OMM_VERS = 2.0
CREATION_DATE  = 
ORIGINATOR     = 

OBJECT_NAME    = SL-16 R/B
OBJECT_ID      = 1993-016B
CENTER_NAME    = EARTH
REF_FRAME      = TEME
TIME_SYSTEM    = UTC
MEAN_ELEMENT_THEORY = SGP/SGP4

EPOCH          = 2026-03-05T21:25:28.613856
MEAN_MOTION    = 14.15306792
ECCENTRICITY   = .00115243
INCLINATION    = 71.0063
RA_OF_ASC_NODE = 223.1556
ARG_OF_PERICENTER = 319.4689
MEAN_ANOMALY   = 40.5575

EPHEMERIS_TYPE = 0
CLASSIFICATION_TYPE = U
NORAD_CAT_ID   = 22566
ELEMENT_SET_NO = 999
REV_AT_EPOCH   = 70163
BSTAR          = .1609304E-3
MEAN_MOTION_DOT = .266E-5
MEAN_MOTION_DDOT = 0

CCSDS_OMM_VERS = 2.0
CREATION_DATE  = 
ORIGINATOR     = 

OBJECT_NAME    = COSMOS 2242
OBJECT_ID      = 1993-024A
CENTER_NAME    = EARTH
REF_FRAME      = TEME
TIME_SYSTEM    = UTC
MEAN_ELEMENT_THEORY = SGP/SGP4

EPOCH          = 2026-03-05T14:58:48.084960
MEAN_MOTION    = 14.96528853
ECCENTRICITY   = .0015446
INCLINATION    = 82.5151
RA_OF_ASC_NODE = 270.6064
ARG_OF_PERICENTER = 323.5049
MEAN_ANOMALY   = 36.5119

EPHEMERIS_TYPE = 0
CLASSIFICATION_TYPE = U
NORAD_CAT_ID   = 22626
ELEMENT_SET_NO = 999
REV_AT_EPOCH   = 77978
BSTAR          = .21662E-3
MEAN_MOTION_DOT = .2493E-4
MEAN_MOTION_DDOT = 0

CCSDS_OMM_VERS = 2.0
CREATION_DATE  = 
ORIGINATOR     = 

OBJECT_NAME    = SL-16 R/B
OBJECT_ID      = 1993-059B
CENTER_NAME    = EARTH
REF_FRAME      = TEME
TIME_SYSTEM    = UTC
MEAN_ELEMENT_THEORY = SGP/SGP4

EPOCH          = 2026-03-05T22:44:53.530656
MEAN_MOTION    = 14.17232136
ECCENTRICITY   = .0018715
INCLINATION    = 70.9923
RA_OF_ASC_NODE = 19.0160
ARG_OF_PERICENTER = 221.8806
MEAN_ANOMALY   = 138.0887

EPHEMERIS_TYPE = 0
CLASSIFICATION_TYPE = U
NORAD_CAT_ID   = 22803
ELEMENT_SET_NO = 999
REV_AT_EPOCH   = 67900
BSTAR          = -.32480892E-4
MEAN_MOTION_DOT = -.114E-5
MEAN_MOTION_DDOT = 0

CCSDS_OMM_VERS = 2.0
CREATION_DATE  = 
ORIGINATOR     = 

OBJECT_NAME    = ARIANE 40 R/B
OBJECT_ID      = 1993-061H
CENTER_NAME    = EARTH
REF_FRAME      = TEME
TIME_SYSTEM    = UTC
MEAN_ELEMENT_THEORY = SGP/SGP4

EPOCH          = 2026-03-05T17:14:15.351072
MEAN_MOTION    = 14.32858647
ECCENTRICITY   = .00096201
INCLINATION    = 98.4923
RA_OF_ASC_NODE = 133.6840
ARG_OF_PERICENTER = 298.2066
MEAN_ANOMALY   = 61.8146

EPHEMERIS_TYPE = 0
CLASSIFICATION_TYPE = U
NORAD_CAT_ID   = 22830
ELEMENT_SET_NO = 999
REV_AT_EPOCH   = 69353
BSTAR          = .12174248E-3
MEAN_MOTION_DOT = .289E-5
MEAN_MOTION_DDOT = 0

CCSDS_OMM_VERS = 2.0
CREATION_DATE  = 
ORIGINATOR     = 

OBJECT_NAME    = COSMOS 2278
OBJECT_ID      = 1994-023A
CENTER_NAME    = EARTH
REF_FRAME      = TEME
TIME_SYSTEM    = UTC
MEAN_ELEMENT_THEORY = SGP/SGP4

EPOCH          = 2026-03-05T16:59:23.705664
MEAN_MOTION    = 14.14377027
ECCENTRICITY   = .00077632
INCLINATION    = 71.0546
RA_OF_ASC_NODE = 183.4267
ARG_OF_PERICENTER = 21.1565
MEAN_ANOMALY   = 338.9877

EPHEMERIS_TYPE = 0
CLASSIFICATION_TYPE = U
NORAD_CAT_ID   = 23087
ELEMENT_SET_NO = 999
REV_AT_EPOCH   = 64424
BSTAR          = .16397945E-3
MEAN_MOTION_DOT = .267E-5
MEAN_MOTION_DDOT = 0

CCSDS_OMM_VERS = 2.0
CREATION_DATE  = 
ORIGINATOR     = 

OBJECT_NAME    = SL-16 R/B
OBJECT_ID      = 1994-023B
CENTER_NAME    = EARTH
REF_FRAME      = TEME
TIME_SYSTEM    = UTC
MEAN_ELEMENT_THEORY = SGP/SGP4

EPOCH          = 2026-03-05T11:21:41.506848
MEAN_MOTION    = 14.15013187
ECCENTRICITY   = .0005672
INCLINATION    = 70.9986
RA_OF_ASC_NODE = 79.7425
ARG_OF_PERICENTER = 289.7929
MEAN_ANOMALY   = 70.2581

EPHEMERIS_TYPE = 0
CLASSIFICATION_TYPE = U
NORAD_CAT_ID   = 23088
ELEMENT_SET_NO = 999
REV_AT_EPOCH   = 64549
BSTAR          = -.54485E-4
MEAN_MOTION_DOT = -.153E-5
MEAN_MOTION_DDOT = 0

CCSDS_OMM_VERS = 2.0
CREATION_DATE  = 
ORIGINATOR     = 

OBJECT_NAME    = SL-16 R/B
OBJECT_ID      = 1994-074B
CENTER_NAME    = EARTH
REF_FRAME      = TEME
TIME_SYSTEM    = UTC
MEAN_ELEMENT_THEORY = SGP/SGP4

EPOCH          = 2026-03-06T00:07:45.753024
MEAN_MOTION    = 14.79402649
ECCENTRICITY   = .00055292
INCLINATION    = 97.7113
RA_OF_ASC_NODE = 95.9723
ARG_OF_PERICENTER = 224.6064
MEAN_ANOMALY   = 194.3981

EPHEMERIS_TYPE = 0
CLASSIFICATION_TYPE = U
NORAD_CAT_ID   = 23343
ELEMENT_SET_NO = 999
REV_AT_EPOCH   = 68670
BSTAR          = .84177767E-4
MEAN_MOTION_DOT = .578E-5
MEAN_MOTION_DDOT = 0

CCSDS_OMM_VERS = 2.0
CREATION_DATE  = 
ORIGINATOR     = 

OBJECT_NAME    = SL-16 R/B
OBJECT_ID      = 1994-077B
CENTER_NAME    = EARTH
REF_FRAME      = TEME
TIME_SYSTEM    = UTC
MEAN_ELEMENT_THEORY = SGP/SGP4

EPOCH          = 2026-03-05T22:49:53.198688
MEAN_MOTION    = 14.15561521
ECCENTRICITY   = .00033153
INCLINATION    = 70.9852
RA_OF_ASC_NODE = 0.3529
ARG_OF_PERICENTER = 217.4117
MEAN_ANOMALY   = 142.6775

EPHEMERIS_TYPE = 0
CLASSIFICATION_TYPE = U
NORAD_CAT_ID   = 23405
ELEMENT_SET_NO = 999
REV_AT_EPOCH   = 61570
BSTAR          = -.84263974E-4
MEAN_MOTION_DOT = -.213E-5
MEAN_MOTION_DDOT = 0

CCSDS_OMM_VERS = 2.0
CREATION_DATE  = 
ORIGINATOR     = 

OBJECT_NAME    = ARIANE 40+ R/B
OBJECT_ID      = 1995-021B
CENTER_NAME    = EARTH
REF_FRAME      = TEME
TIME_SYSTEM    = UTC
MEAN_ELEMENT_THEORY = SGP/SGP4

EPOCH          = 2026-03-05T17:25:45.400224
MEAN_MOTION    = 14.39769270
ECCENTRICITY   = .00074727
INCLINATION    = 98.4505
RA_OF_ASC_NODE = 136.2624
ARG_OF_PERICENTER = 147.1612
MEAN_ANOMALY   = 323.9586

EPHEMERIS_TYPE = 0
CLASSIFICATION_TYPE = U
NORAD_CAT_ID   = 23561
ELEMENT_SET_NO = 999
REV_AT_EPOCH   = 61867
BSTAR          = .14888555E-3
MEAN_MOTION_DOT = .423E-5
MEAN_MOTION_DDOT = 0

CCSDS_OMM_VERS = 2.0
CREATION_DATE  = 
ORIGINATOR     = 

OBJECT_NAME    = SL-16 R/B
OBJECT_ID      = 1995-058B
CENTER_NAME    = EARTH
REF_FRAME      = TEME
TIME_SYSTEM    = UTC
MEAN_ELEMENT_THEORY = SGP/SGP4

EPOCH          = 2026-03-05T17:54:25.058304
MEAN_MOTION    = 14.15493138
ECCENTRICITY   = .00109693
INCLINATION    = 71.0213
RA_OF_ASC_NODE = 188.5336
ARG_OF_PERICENTER = 132.7336
MEAN_ANOMALY   = 227.4712

EPHEMERIS_TYPE = 0
CLASSIFICATION_TYPE = U
NORAD_CAT_ID   = 23705
ELEMENT_SET_NO = 999
REV_AT_EPOCH   = 56729
BSTAR          = .85534039E-4
MEAN_MOTION_DOT = .12E-5
MEAN_MOTION_DDOT = 0

CCSDS_OMM_VERS = 2.0
CREATION_DATE  = 
ORIGINATOR     = 

OBJECT_NAME    = SL-16 R/B
OBJECT_ID      = 1996-051B
CENTER_NAME    = EARTH
REF_FRAME      = TEME
TIME_SYSTEM    = UTC
MEAN_ELEMENT_THEORY = SGP/SGP4

EPOCH          = 2026-03-05T16:54:08.274816
MEAN_MOTION    = 14.12414504
ECCENTRICITY   = .00154223
INCLINATION    = 70.7599
RA_OF_ASC_NODE = 183.6736
ARG_OF_PERICENTER = 154.0650
MEAN_ANOMALY   = 206.1246

EPHEMERIS_TYPE = 0
CLASSIFICATION_TYPE = U
NORAD_CAT_ID   = 24298
ELEMENT_SET_NO = 999
REV_AT_EPOCH   = 52108
BSTAR          = .92989771E-4
MEAN_MOTION_DOT = .123E-5
MEAN_MOTION_DDOT = 0

CCSDS_OMM_VERS = 2.0
CREATION_DATE  = 
ORIGINATOR     = 

OBJECT_NAME    = ORBVIEW 2 (SEASTAR)
OBJECT_ID      = 1997-037A
CENTER_NAME    = EARTH
REF_FRAME      = TEME
TIME_SYSTEM    = UTC
MEAN_ELEMENT_THEORY = SGP/SGP4

EPOCH          = 2026-03-05T22:23:12.656832
MEAN_MOTION    = 14.35491444
ECCENTRICITY   = .00031464
INCLINATION    = 98.8559
RA_OF_ASC_NODE = 229.1451
ARG_OF_PERICENTER = 79.4139
MEAN_ANOMALY   = 280.7399

EPHEMERIS_TYPE = 0
CLASSIFICATION_TYPE = U
NORAD_CAT_ID   = 24883
ELEMENT_SET_NO = 999
REV_AT_EPOCH   = 50793
BSTAR          = .15218956E-3
MEAN_MOTION_DOT = .391E-5
MEAN_MOTION_DDOT = 0

